{"fetched_at":"2026-07-08T07:03:43.082Z","source":"https://celestrak.org/NORAD/elements/gp.php?GROUP=stations&FORMAT=JSON","constellation":"tiangong","records":[{"OBJECT_NAME":"CSS (TIANHE)","OBJECT_ID":"2021-035A","EPOCH":"2026-07-07T17:09:58.751712","CLASSIFICATION_TYPE":"U","MEAN_MOTION":15.58032039,"ECCENTRICITY":0.0002967,"INCLINATION":41.4678,"RA_OF_ASC_NODE":197.1676,"ARG_OF_PERICENTER":274.9707,"MEAN_ANOMALY":85.0792,"EPHEMERIS_TYPE":0,"NORAD_CAT_ID":48274,"ELEMENT_SET_NO":999,"REV_AT_EPOCH":29637,"BSTAR":0.00011198,"MEAN_MOTION_DOT":0.00008323,"MEAN_MOTION_DDOT":0}]}
